OBJECT_NAME,OBJECT_ID,EPOCH,MEAN_MOTION,ECCENTRICITY,INCLINATION,RA_OF_ASC_NODE,ARG_OF_PERICENTER,MEAN_ANOMALY,EPHEMERIS_TYPE,CLASSIFICATION_TYPE,NORAD_CAT_ID,ELEMENT_SET_NO,REV_AT_EPOCH,BSTAR,MEAN_MOTION_DOT,MEAN_MOTION_DDOT
GPS BIIR-5  (PRN 22),2000-040A,2026-07-18T17:17:02.370048,2.00557927,.0120417,54.8481,213.9096,302.7882,68.8565,0,U,26407,999,19058,0,.45E-6,0
GPS BIIR-8  (PRN 16),2003-005A,2026-07-18T00:47:15.190944,2.00558906,.01483425,54.8786,213.7432,53.1791,318.3860,0,U,27663,999,17193,0,.41E-6,0
GPS BIIR-11 (PRN 19),2004-009A,2026-07-18T21:21:50.796000,2.00553630,.0117297,54.8035,274.4049,174.5065,248.5717,0,U,28190,999,16358,0,-.48E-6,0
GPS BIIR-13 (PRN 02),2004-045A,2026-07-17T16:13:45.005376,2.00557200,.01702252,55.1165,323.6683,317.1195,14.5735,0,U,28474,999,15903,0,-.98E-6,0
GPS BIIRM-1 (PRN 17),2005-038A,2026-07-18T05:55:01.616736,2.00563533,.01282651,54.8531,271.9225,296.4514,51.7295,0,U,28874,999,15245,0,-.41E-6,0
INMARSAT 4-F2 (SOUTHPAN/PRN 122),2005-044A,2026-07-18T15:02:40.932960,1.00271304,.0002852,5.1356,43.6784,60.9664,200.9444,0,U,28899,999,7583,0,-.269E-5,0
GPS BIIRM-2 (PRN 31),2006-042A,2026-07-18T16:33:08.034912,2.00568062,.010728,54.7131,150.0883,55.2551,151.8958,0,U,29486,999,14502,0,.35E-6,0
GPS BIIRM-3 (PRN 12),2006-052A,2026-07-18T07:56:30.293088,2.00559878,.0084754,54.9320,212.7716,91.0016,269.9965,0,U,29601,999,14403,0,.44E-6,0
GPS BIIRM-4 (PRN 15),2007-047A,2026-07-18T15:16:52.785120,2.00553808,.0167902,54.1184,78.7692,88.0692,273.9140,0,U,32260,999,13744,0,-.51E-6,0
COSMOS 2433 (720),2007-052A,2026-07-17T21:16:46.394112,2.13104037,.0003631,65.5578,314.9006,203.8821,156.1180,0,U,32275,999,14571,0,-.7E-6,0
COSMOS 2432 (719),2007-052B,2026-07-18T21:43:08.165568,2.13103040,.000738,65.5730,314.9948,321.4337,43.5458,0,U,32276,999,14576,0,-.76E-6,0
GPS BIIRM-5 (PRN 29),2007-062A,2026-07-18T09:53:33.819936,2.00561816,.00360729,55.0070,272.8960,167.7271,158.2218,0,U,32384,999,13613,0,-.43E-6,0
COSMOS 2434 (721),2007-065A,2026-07-18T11:53:46.942080,2.13101158,.00012335,64.3202,190.8597,326.9616,29.9549,0,U,32393,999,14443,0,.65E-6,0
COSMOS 2436 (723),2007-065C,2026-07-18T13:34:14.009952,2.13099956,.0017321,64.3287,190.9299,353.5976,189.0118,0,U,32395,999,14439,0,.65E-6,0
GPS BIIRM-6 (PRN 07),2008-012A,2026-07-18T01:06:57.249216,2.00573231,.02117053,54.5003,148.6919,248.1782,109.5290,0,U,32711,999,13437,0,.31E-6,0
GPS BIIRM-8 (PRN 05),2009-043A,2026-07-18T13:11:28.420800,2.00552618,.00536882,56.2300,26.2211,84.5356,286.1114,0,U,35752,999,12399,0,-.89E-6,0
COSMOS 2456 (730),2009-070A,2026-07-16T04:16:30.382752,2.13103565,.0003619,65.0282,69.9837,341.3386,195.9451,0,U,36111,999,12904,0,-.16E-6,0
COSMOS 2457 (733),2009-070B,2026-07-18T19:44:06.700992,2.13100964,.000422,65.0154,69.7367,121.6257,51.3021,0,U,36112,999,12910,0,-.4E-6,0
COSMOS 2460 (732),2010-007C,2026-07-18T08:33:38.668320,2.13101436,.0001849,65.4006,313.4121,148.1871,29.5036,0,U,36402,999,12739,0,-.72E-6,0
GPS BIIF-1  (PRN 25),2010-022A,2026-07-18T08:46:13.229760,2.00563940,.01268042,54.2683,207.3060,66.1575,291.5184,0,U,36585,999,11821,0,.47E-6,0
BEIDOU-2 IGSO-1 (C06),2010-036A,2026-07-17T20:09:07.585632,1.00263080,.00588528,54.3070,162.6827,225.1686,317.0611,0,U,36828,999,5840,0,-.112E-5,0
BEIDOU-2 G4 (C04),2010-057A,2026-07-18T14:53:07.848672,1.00272564,.0005544,3.7234,68.7521,185.6049,65.2733,0,U,37210,999,5760,0,-.121E-5,0
BEIDOU-2 IGSO-2 (C07),2010-068A,2026-07-17T22:09:02.283840,1.00272861,.00569562,47.4899,271.4483,213.9138,250.9288,0,U,37256,999,5710,0,-.202E-5,0
BEIDOU-2 IGSO-3 (C08),2011-013A,2026-07-18T12:00:41.338944,1.00260006,.00355629,62.4507,39.8549,183.4443,359.4682,0,U,37384,999,5597,0,-.175E-5,0
GSAT-8 (GAGAN/PRN 127),2011-022A,2026-07-18T20:31:25.358304,1.00271355,.0002486,2.2112,81.4381,156.5679,61.5854,0,U,37605,999,5353,0,.77E-6,0
BEIDOU-2 IGSO-4 (C09),2011-038A,2026-07-18T20:40:43.128192,1.00278571,.0160238,54.6051,165.3909,231.4788,304.3437,0,U,37763,999,5496,0,-.26E-6,0
GSAT0101 (GALILEO-PFM),2011-060A,2026-07-17T22:29:50.024256,1.70475655,.0002114,56.9832,340.9281,62.8592,297.1517,0,U,37846,999,9164,0,-.105E-5,0
GSAT0102 (GALILEO-FM2),2011-060B,2026-07-15T12:19:38.977248,1.70475846,.00021082,56.9849,340.9943,7.4765,350.6813,0,U,37847,999,9160,0,-.101E-5,0
COSMOS 2476 (744),2011-064A,2026-07-18T04:11:02.956128,2.13103618,.00220678,65.2874,71.8256,235.6441,301.3919,0,U,37867,999,11442,0,-.32E-6,0
COSMOS 2477 (745),2011-064B,2026-07-15T03:41:41.820000,2.13102912,.0019117,65.2921,72.0075,236.8947,323.2552,0,U,37868,999,11435,0,-.1E-6,0
COSMOS 2475 (743),2011-064C,2026-07-17T19:12:29.293920,2.13101626,.00246905,65.3005,71.9400,250.9775,134.3774,0,U,37869,999,11442,0,-.28E-6,0
